{
  "type": "FeatureCollection",
  "features": [
    {
      "type": "Feature",
      "properties": {
        "norad_id": 67072,
        "name": "ELECTRON R/B",
        "group": "last-30-days",
        "lat": 5.948392330479389,
        "lon": 137.4838767421622,
        "alt_km": 475.91726269436367,
        "timestamp": "2025-12-16T13:52:36.289756+00:00",
        "meta_object_name": "ELECTRON R/B",
        "meta_object_id": "2025-297A",
        "meta_epoch": "2025-12-15T22:36:40.336992",
        "meta_mean_motion": 15.74906784,
        "meta_eccentricity": 0.02473954,
        "meta_inclination": 97.4806,
        "meta_ra_of_asc_node": 137.5814,
        "meta_arg_of_pericenter": 220.6839,
        "meta_mean_anomaly": 137.5717,
        "meta_ephemeris_type": 0,
        "meta_classification_type": "U",
        "meta_norad_cat_id": 67072,
        "meta_element_set_no": 999,
        "meta_rev_at_epoch": 29,
        "meta_bstar": 0.0013310064,
        "meta_mean_motion_dot": 0.01736878,
        "meta_mean_motion_ddot": 2.24443e-06,
        "tle_line1": "1 67072U 25297A   25349.94213353  .01736878  22444-5  13310-2 0  9991",
        "tle_line2": "2 67072  97.4806 137.5814 0247395 220.6839 137.5717 15.74906784   290"
      },
      "geometry": {
        "type": "Point",
        "coordinates": [
          137.4838767421622,
          5.948392330479389
        ]
      }
    },
    {
      "type": "Feature",
      "properties": {
        "norad_id": 67073,
        "name": "RAISE-4",
        "group": "last-30-days",
        "lat": 25.930511818270205,
        "lon": -38.31077728720172,
        "alt_km": 551.3461456796495,
        "timestamp": "2025-12-16T13:52:36.289766+00:00",
        "meta_object_name": "RAISE-4",
        "meta_object_id": "2025-297B",
        "meta_epoch": "2025-12-15T21:15:43.405920",
        "meta_mean_motion": 15.07151436,
        "meta_eccentricity": 0.0011743,
        "meta_inclination": 97.485,
        "meta_ra_of_asc_node": 137.3506,
        "meta_arg_of_pericenter": 309.363,
        "meta_mean_anomaly": 50.6557,
        "meta_ephemeris_type": 0,
        "meta_classification_type": "U",
        "meta_norad_cat_id": 67073,
        "meta_element_set_no": 999,
        "meta_rev_at_epoch": 26,
        "meta_bstar": 0.00025306157,
        "meta_mean_motion_dot": 3.749e-05,
        "meta_mean_motion_ddot": 0,
        "tle_line1": "1 67073U 25297B   25349.88591905  .00003749  00000+0  25306-3 0  9997",
        "tle_line2": "2 67073  97.4850 137.3506 0011743 309.3630  50.6557 15.07151436   262"
      },
      "geometry": {
        "type": "Point",
        "coordinates": [
          -38.31077728720172,
          25.930511818270205
        ]
      }
    },
    {
      "type": "Feature",
      "properties": {
        "norad_id": 67074,
        "name": "ELECTRON KICK STAGE R/B",
        "group": "last-30-days",
        "lat": -18.24867429668474,
        "lon": -44.27322651847244,
        "alt_km": 330.31211861639713,
        "timestamp": "2025-12-16T13:52:36.289776+00:00",
        "meta_object_name": "ELECTRON KICK STAGE R/B",
        "meta_object_id": "2025-297C",
        "meta_epoch": "2025-12-15T21:33:35.016480",
        "meta_mean_motion": 15.54435727,
        "meta_eccentricity": 0.02071475,
        "meta_inclination": 97.4818,
        "meta_ra_of_asc_node": 137.4993,
        "meta_arg_of_pericenter": 258.0291,
        "meta_mean_anomaly": 99.7676,
        "meta_ephemeris_type": 0,
        "meta_classification_type": "U",
        "meta_norad_cat_id": 67074,
        "meta_element_set_no": 999,
        "meta_rev_at_epoch": 27,
        "meta_bstar": 0.0013632328,
        "meta_mean_motion_dot": 0.0023846,
        "meta_mean_motion_ddot": 1.6758175e-05,
        "tle_line1": "1 67074U 25297C   25349.89832195  .00238460  16758-4  13632-2 0  9998",
        "tle_line2": "2 67074  97.4818 137.4993 0207147 258.0291  99.7676 15.54435727   273"
      },
      "geometry": {
        "type": "Point",
        "coordinates": [
          -44.27322651847244,
          -18.24867429668474
        ]
      }
    }
  ]
}